[
  {
    "OBJECT_NAME": "STARLINK-34852",
    "OBJECT_ID": "25237X",
    "EPOCH": "2025-11-11T06:00:02.000160",
    "MEAN_MOTION": 15.57334129,
    "ECCENTRICITY": 9.12e-05,
    "INCLINATION": 53.1591,
    "RA_OF_ASC_NODE": 236.293,
    "ARG_OF_PERICENTER": 92.2648,
    "MEAN_ANOMALY": 311.6758,
    "EPHEMERIS_TYPE": 0,
    "CLASSIFICATION_TYPE": "U",
    "NORAD_CAT_ID": 66135,
    "ELEMENT_SET_NO": 999,
    "REV_AT_EPOCH": 437,
    "BSTAR": 0.0,
    "MEAN_MOTION_DOT": -0.01917632,
    "MEAN_MOTION_DDOT": 0.0,
    "TLE_LINE1": "1 66135U 25237X   25315.25002315 -.01917632  00000+0 -29210-1 0  9999",
    "TLE_LINE2": "2 66135  53.1591 236.2930 0000912  92.2648 311.6758 15.57334129  4370",
    "COMMENT": "Grouped by shell and plane from TLE"
  },
  {
    "OBJECT_NAME": "STARLINK-35592",
    "OBJECT_ID": "25237Y",
    "EPOCH": "2025-11-11T06:00:02.000160",
    "MEAN_MOTION": 15.57337558,
    "ECCENTRICITY": 8.17e-05,
    "INCLINATION": 53.1592,
    "RA_OF_ASC_NODE": 236.2892,
    "ARG_OF_PERICENTER": 95.4603,
    "MEAN_ANOMALY": 310.397,
    "EPHEMERIS_TYPE": 0,
    "CLASSIFICATION_TYPE": "U",
    "NORAD_CAT_ID": 66136,
    "ELEMENT_SET_NO": 999,
    "REV_AT_EPOCH": 441,
    "BSTAR": 0.0,
    "MEAN_MOTION_DOT": -0.01923855,
    "MEAN_MOTION_DDOT": 0.0,
    "TLE_LINE1": "1 66136U 25237Y   25315.25002315 -.01923855  00000+0 -29315-1 0  9990",
    "TLE_LINE2": "2 66136  53.1592 236.2892 0000817  95.4603 310.3970 15.57337558  4415",
    "COMMENT": "Grouped by shell and plane from TLE"
  },
  {
    "OBJECT_NAME": "STARLINK-35576",
    "OBJECT_ID": "25237Z",
    "EPOCH": "2025-11-11T06:00:02.000160",
    "MEAN_MOTION": 15.57335553,
    "ECCENTRICITY": 8.76e-05,
    "INCLINATION": 53.1592,
    "RA_OF_ASC_NODE": 236.2847,
    "ARG_OF_PERICENTER": 91.9804,
    "MEAN_ANOMALY": 315.7969,
    "EPHEMERIS_TYPE": 0,
    "CLASSIFICATION_TYPE": "U",
    "NORAD_CAT_ID": 66137,
    "ELEMENT_SET_NO": 999,
    "REV_AT_EPOCH": 441,
    "BSTAR": 0.0,
    "MEAN_MOTION_DOT": -0.01922623,
    "MEAN_MOTION_DDOT": 0.0,
    "TLE_LINE1": "1 66137U 25237Z   25315.25002315 -.01922623  00000+0 -29295-1 0  9990",
    "TLE_LINE2": "2 66137  53.1592 236.2847 0000876  91.9804 315.7969 15.57335553  4415",
    "COMMENT": "Grouped by shell and plane from TLE"
  },
  {
    "OBJECT_NAME": "STARLINK-35623",
    "OBJECT_ID": "25237AA",
    "EPOCH": "2025-11-11T06:00:02.000160",
    "MEAN_MOTION": 15.573426,
    "ECCENTRICITY": 7.52e-05,
    "INCLINATION": 53.1593,
    "RA_OF_ASC_NODE": 236.2819,
    "ARG_OF_PERICENTER": 95.2159,
    "MEAN_ANOMALY": 314.4746,
    "EPHEMERIS_TYPE": 0,
    "CLASSIFICATION_TYPE": "U",
    "NORAD_CAT_ID": 66138,
    "ELEMENT_SET_NO": 999,
    "REV_AT_EPOCH": 441,
    "BSTAR": 0.0,
    "MEAN_MOTION_DOT": -0.01932359,
    "MEAN_MOTION_DDOT": 0.0,
    "TLE_LINE1": "1 66138U 25237AA  25315.25002315 -.01932359  00000+0 -29458-1 0  9999",
    "TLE_LINE2": "2 66138  53.1593 236.2819 0000752  95.2159 314.4746 15.57342600  4419",
    "COMMENT": "Grouped by shell and plane from TLE"
  },
  {
    "OBJECT_NAME": "STARLINK-35549",
    "OBJECT_ID": "25237AB",
    "EPOCH": "2025-11-11T06:00:02.000160",
    "MEAN_MOTION": 15.57345711,
    "ECCENTRICITY": 9.41e-05,
    "INCLINATION": 53.159,
    "RA_OF_ASC_NODE": 236.2727,
    "ARG_OF_PERICENTER": 90.1727,
    "MEAN_ANOMALY": 323.3521,
    "EPHEMERIS_TYPE": 0,
    "CLASSIFICATION_TYPE": "U",
    "NORAD_CAT_ID": 66139,
    "ELEMENT_SET_NO": 999,
    "REV_AT_EPOCH": 441,
    "BSTAR": 0.0,
    "MEAN_MOTION_DOT": -0.01941338,
    "MEAN_MOTION_DDOT": 0.0,
    "TLE_LINE1": "1 66139U 25237AB  25315.25002315 -.01941338  00000+0 -29608-1 0  9994",
    "TLE_LINE2": "2 66139  53.1590 236.2727 0000941  90.1727 323.3521 15.57345711  4416",
    "COMMENT": "Grouped by shell and plane from TLE"
  },
  {
    "OBJECT_NAME": "STARLINK-35625",
    "OBJECT_ID": "25237AC",
    "EPOCH": "2025-11-11T06:00:02.000160",
    "MEAN_MOTION": 15.57341219,
    "ECCENTRICITY": 9.25e-05,
    "INCLINATION": 53.1592,
    "RA_OF_ASC_NODE": 236.2772,
    "ARG_OF_PERICENTER": 90.9903,
    "MEAN_ANOMALY": 320.6148,
    "EPHEMERIS_TYPE": 0,
    "CLASSIFICATION_TYPE": "U",
    "NORAD_CAT_ID": 66140,
    "ELEMENT_SET_NO": 999,
    "REV_AT_EPOCH": 441,
    "BSTAR": 0.0,
    "MEAN_MOTION_DOT": -0.01928568,
    "MEAN_MOTION_DDOT": 0.0,
    "TLE_LINE1": "1 66140U 25237AC  25315.25002315 -.01928568  00000+0 -29392-1 0  9996",
    "TLE_LINE2": "2 66140  53.1592 236.2772 0000925  90.9903 320.6148 15.57341219  4410",
    "COMMENT": "Grouped by shell and plane from TLE"
  },
  {
    "OBJECT_NAME": "STARLINK-35603",
    "OBJECT_ID": "25237AD",
    "EPOCH": "2025-11-11T06:00:02.000160",
    "MEAN_MOTION": 15.57346679,
    "ECCENTRICITY": 8.17e-05,
    "INCLINATION": 53.159,
    "RA_OF_ASC_NODE": 236.2693,
    "ARG_OF_PERICENTER": 92.355,
    "MEAN_ANOMALY": 323.0816,
    "EPHEMERIS_TYPE": 0,
    "CLASSIFICATION_TYPE": "U",
    "NORAD_CAT_ID": 66141,
    "ELEMENT_SET_NO": 999,
    "REV_AT_EPOCH": 441,
    "BSTAR": 0.0,
    "MEAN_MOTION_DOT": -0.01937316,
    "MEAN_MOTION_DDOT": 0.0,
    "TLE_LINE1": "1 66141U 25237AD  25315.25002315 -.01937316  00000+0 -29538-1 0  9990",
    "TLE_LINE2": "2 66141  53.1590 236.2693 0000817  92.3550 323.0816 15.57346679  4419",
    "COMMENT": "Grouped by shell and plane from TLE"
  }
]